[{"OBJECT_NAME":"CINEMA","OBJECT_ID":"2012-048G","EPOCH":"2026-03-09T23:21:38.910528","MEAN_MOTION":15.41758997,"ECCENTRICITY":0.00644529,"INCLINATION":64.645,"RA_OF_ASC_NODE":61.8658,"ARG_OF_PERICENTER":204.5071,"MEAN_ANOMALY":155.2999,"EPHEMERIS_TYPE":0,"CLASSIFICATION_TYPE":"U","NORAD_CAT_ID":38764,"ELEMENT_SET_NO":999,"REV_AT_EPOCH":10191,"BSTAR":0.00076174658,"MEAN_MOTION_DOT":0.0003483,"MEAN_MOTION_DDOT":0},{"OBJECT_NAME":"STARLINK-30929","OBJECT_ID":"2023-178N","EPOCH":"2026-03-09T02:16:37.117056","MEAN_MOTION":15.3019066,"ECCENTRICITY":9.844e-5,"INCLINATION":53.1622,"RA_OF_ASC_NODE":4.1069,"ARG_OF_PERICENTER":85.6529,"MEAN_ANOMALY":274.4584,"EPHEMERIS_TYPE":0,"CLASSIFICATION_TYPE":"U","NORAD_CAT_ID":58386,"ELEMENT_SET_NO":999,"REV_AT_EPOCH":12977,"BSTAR":6.4589605e-5,"MEAN_MOTION_DOT":1.554e-5,"MEAN_MOTION_DDOT":0}]
